[{"OBJECT_NAME":"STARLINK-35458","OBJECT_ID":"2025-225R","EPOCH":"2026-03-09T12:04:10.432992","MEAN_MOTION":15.30198318,"ECCENTRICITY":0.00012583,"INCLINATION":53.1583,"RA_OF_ASC_NODE":166.2511,"ARG_OF_PERICENTER":108.0336,"MEAN_ANOMALY":252.0802,"EPHEMERIS_TYPE":0,"CLASSIFICATION_TYPE":"U","NORAD_CAT_ID":65925,"ELEMENT_SET_NO":999,"REV_AT_EPOCH":2438,"BSTAR":0.00065452582,"MEAN_MOTION_DOT":0.00019075,"MEAN_MOTION_DDOT":0},{"OBJECT_NAME":"CZ-2C R\/B","OBJECT_ID":"2025-266D","EPOCH":"2026-03-09T20:29:03.778080","MEAN_MOTION":15.32844431,"ECCENTRICITY":0.00801532,"INCLINATION":52.0528,"RA_OF_ASC_NODE":275.4841,"ARG_OF_PERICENTER":115.4113,"MEAN_ANOMALY":245.5197,"EPHEMERIS_TYPE":0,"CLASSIFICATION_TYPE":"U","NORAD_CAT_ID":66548,"ELEMENT_SET_NO":999,"REV_AT_EPOCH":1696,"BSTAR":0.00054134058,"MEAN_MOTION_DOT":0.00018939,"MEAN_MOTION_DDOT":0}]
